[{"OBJECT_NAME":"SL-8 R/B","OBJECT_ID":"1988-053B","EPOCH":"2026-03-12T14:05:04.818048","MEAN_MOTION":14.3891777,"ECCENTRICITY":0.0021473,"INCLINATION":74.0456,"RA_OF_ASC_NODE":107.1257,"ARG_OF_PERICENTER":286.0145,"MEAN_ANOMALY":188.5505,"EPHEMERIS_TYPE":0,"CLASSIFICATION_TYPE":"U","NORAD_CAT_ID":19257,"ELEMENT_SET_NO":999,"REV_AT_EPOCH":97701,"BSTAR":0.00010685,"MEAN_MOTION_DOT":3.04e-6,"MEAN_MOTION_DDOT":0},{"OBJECT_NAME":"COSMOS 1975","OBJECT_ID":"1988-093A","EPOCH":"2026-03-12T14:32:44.906784","MEAN_MOTION":15.28114295,"ECCENTRICITY":0.0012413,"INCLINATION":82.5183,"RA_OF_ASC_NODE":114.7575,"ARG_OF_PERICENTER":153.5264,"MEAN_ANOMALY":206.6612,"EPHEMERIS_TYPE":0,"CLASSIFICATION_TYPE":"U","NORAD_CAT_ID":19573,"ELEMENT_SET_NO":999,"REV_AT_EPOCH":1985,"BSTAR":0.00026024,"MEAN_MOTION_DOT":7.18e-5,"MEAN_MOTION_DDOT":0},{"OBJECT_NAME":"SL-14 R/B","OBJECT_ID":"1988-093B","EPOCH":"2026-03-12T10:26:27.204576","MEAN_MOTION":14.8566063,"ECCENTRICITY":0.0021577,"INCLINATION":82.5309,"RA_OF_ASC_NODE":39.4663,"ARG_OF_PERICENTER":32.8451,"MEAN_ANOMALY":88.9894,"EPHEMERIS_TYPE":0,"CLASSIFICATION_TYPE":"U","NORAD_CAT_ID":19574,"ELEMENT_SET_NO":999,"REV_AT_EPOCH":142,"BSTAR":8.334e-5,"MEAN_MOTION_DOT":7.49e-6,"MEAN_MOTION_DDOT":0},{"OBJECT_NAME":"SL-16 R/B","OBJECT_ID":"1988-102B","EPOCH":"2026-03-12T15:49:57.195264","MEAN_MOTION":14.16154077,"ECCENTRICITY":0.0014158,"INCLINATION":70.9998,"RA_OF_ASC_NODE":145.2486,"ARG_OF_PERICENTER":357.0023,"MEAN_ANOMALY":3.1013,"EPHEMERIS_TYPE":0,"CLASSIFICATION_TYPE":"U","NORAD_CAT_ID":19650,"ELEMENT_SET_NO":999,"REV_AT_EPOCH":92731,"BSTAR":0.00016251,"MEAN_MOTION_DOT":2.74e-6,"MEAN_MOTION_DDOT":0},{"OBJECT_NAME":"INTERCOSMOS 24","OBJECT_ID":"1989-080A","EPOCH":"2026-03-12T13:58:54.721056","MEAN_MOTION":12.59562801,"ECCENTRICITY":0.1186682,"INCLINATION":82.6021,"RA_OF_ASC_NODE":102.52,"ARG_OF_PERICENTER":286.0994,"MEAN_ANOMALY":61.2826,"EPHEMERIS_TYPE":0,"CLASSIFICATION_TYPE":"U","NORAD_CAT_ID":20261,"ELEMENT_SET_NO":999,"REV_AT_EPOCH":66716,"BSTAR":0.00024814,"MEAN_MOTION_DOT":8.33e-6,"MEAN_MOTION_DDOT":0},{"OBJECT_NAME":"SL-14 R/B","OBJECT_ID":"1989-080C","EPOCH":"2026-03-12T18:09:32.412960","MEAN_MOTION":12.50497915,"ECCENTRICITY":0.123066,"INCLINATION":82.5974,"RA_OF_ASC_NODE":171.2182,"ARG_OF_PERICENTER":177.7419,"MEAN_ANOMALY":183.0018,"EPHEMERIS_TYPE":0,"CLASSIFICATION_TYPE":"U","NORAD_CAT_ID":20262,"ELEMENT_SET_NO":999,"REV_AT_EPOCH":66053,"BSTAR":0.00018538,"MEAN_MOTION_DOT":6.33e-6,"MEAN_MOTION_DDOT":0},{"OBJECT_NAME":"DELTA 1 R/B","OBJECT_ID":"1989-089B","EPOCH":"2026-03-12T14:04:59.729088","MEAN_MOTION":14.50665673,"ECCENTRICITY":0.0070581,"INCLINATION":97.0704,"RA_OF_ASC_NODE":278.5648,"ARG_OF_PERICENTER":112.9989,"MEAN_ANOMALY":247.8674,"EPHEMERIS_TYPE":0,"CLASSIFICATION_TYPE":"U","NORAD_CAT_ID":20323,"ELEMENT_SET_NO":999,"REV_AT_EPOCH":89615,"BSTAR":0.0001102,"MEAN_MOTION_DOT":4.12e-6,"MEAN_MOTION_DDOT":0},{"OBJECT_NAME":"ARIANE 40 R/B","OBJECT_ID":"1990-005H","EPOCH":"2026-03-12T17:34:18.217920","MEAN_MOTION":14.39872747,"ECCENTRICITY":0.0010033,"INCLINATION":98.3078,"RA_OF_ASC_NODE":132.3029,"ARG_OF_PERICENTER":189.19,"MEAN_ANOMALY":170.9107,"EPHEMERIS_TYPE":0,"CLASSIFICATION_TYPE":"U","NORAD_CAT_ID":20443,"ELEMENT_SET_NO":999,"REV_AT_EPOCH":89324,"BSTAR":0.00011175,"MEAN_MOTION_DOT":3.09e-6,"MEAN_MOTION_DDOT":0},{"OBJECT_NAME":"DELTA 2 R/B(1)","OBJECT_ID":"1990-008B","EPOCH":"2026-03-12T13:58:30.046944","MEAN_MOTION":15.56385855,"ECCENTRICITY":0.0084468,"INCLINATION":35.6032,"RA_OF_ASC_NODE":155.8638,"ARG_OF_PERICENTER":285.3867,"MEAN_ANOMALY":73.755,"EPHEMERIS_TYPE":0,"CLASSIFICATION_TYPE":"U","NORAD_CAT_ID":20453,"ELEMENT_SET_NO":999,"REV_AT_EPOCH":92658,"BSTAR":0.00079308,"MEAN_MOTION_DOT":0.00068711,"MEAN_MOTION_DDOT":0},{"OBJECT_NAME":"COSMOS 2058","OBJECT_ID":"1990-010A","EPOCH":"2026-03-12T10:17:36.698208","MEAN_MOTION":15.11349429,"ECCENTRICITY":0.0008931,"INCLINATION":82.4668,"RA_OF_ASC_NODE":44.7287,"ARG_OF_PERICENTER":335.5228,"MEAN_ANOMALY":24.5576,"EPHEMERIS_TYPE":0,"CLASSIFICATION_TYPE":"U","NORAD_CAT_ID":20465,"ELEMENT_SET_NO":999,"REV_AT_EPOCH":94265,"BSTAR":0.00028118,"MEAN_MOTION_DOT":4.772e-5,"MEAN_MOTION_DDOT":0},{"OBJECT_NAME":"SL-14 R/B","OBJECT_ID":"1990-010B","EPOCH":"2026-03-12T14:05:25.279296","MEAN_MOTION":14.83571789,"ECCENTRICITY":0.001842,"INCLINATION":82.4986,"RA_OF_ASC_NODE":264.6662,"ARG_OF_PERICENTER":292.0668,"MEAN_ANOMALY":67.8591,"EPHEMERIS_TYPE":0,"CLASSIFICATION_TYPE":"U","NORAD_CAT_ID":20466,"ELEMENT_SET_NO":999,"REV_AT_EPOCH":92891,"BSTAR":6.1353e-5,"MEAN_MOTION_DOT":5.3e-6,"MEAN_MOTION_DDOT":0},{"OBJECT_NAME":"SL-14 R/B","OBJECT_ID":"1990-018B","EPOCH":"2026-03-12T11:20:41.744832","MEAN_MOTION":14.82148561,"ECCENTRICITY":0.0017645,"INCLINATION":82.5208,"RA_OF_ASC_NODE":220.4881,"ARG_OF_PERICENTER":83.6362,"MEAN_ANOMALY":276.6861,"EPHEMERIS_TYPE":0,"CLASSIFICATION_TYPE":"U","NORAD_CAT_ID":20511,"ELEMENT_SET_NO":999,"REV_AT_EPOCH":92299,"BSTAR":7.9303e-5,"MEAN_MOTION_DOT":6.56e-6,"MEAN_MOTION_DDOT":0},{"OBJECT_NAME":"HST","OBJECT_ID":"1990-037B","EPOCH":"2026-03-12T05:26:07.751040","MEAN_MOTION":15.29528665,"ECCENTRICITY":0.0001818,"INCLINATION":28.4723,"RA_OF_ASC_NODE":22.6938,"ARG_OF_PERICENTER":150.2149,"MEAN_ANOMALY":209.855,"EPHEMERIS_TYPE":0,"CLASSIFICATION_TYPE":"U","NORAD_CAT_ID":20580,"ELEMENT_SET_NO":999,"REV_AT_EPOCH":77370,"BSTAR":0.00028559,"MEAN_MOTION_DOT":8.646e-5,"MEAN_MOTION_DDOT":0},{"OBJECT_NAME":"SL-16 R/B","OBJECT_ID":"1990-046B","EPOCH":"2026-03-12T17:41:11.581440","MEAN_MOTION":14.15011499,"ECCENTRICITY":0.0016198,"INCLINATION":70.9981,"RA_OF_ASC_NODE":291.5147,"ARG_OF_PERICENTER":295.5364,"MEAN_ANOMALY":64.4084,"EPHEMERIS_TYPE":0,"CLASSIFICATION_TYPE":"U","NORAD_CAT_ID":20625,"ELEMENT_SET_NO":999,"REV_AT_EPOCH":84882,"BSTAR":-5.2625e-5,"MEAN_MOTION_DOT":-1.5e-6,"MEAN_MOTION_DDOT":0},{"OBJECT_NAME":"COSMOS 2084","OBJECT_ID":"1990-055A","EPOCH":"2026-03-12T17:03:15.032160","MEAN_MOTION":15.05671013,"ECCENTRICITY":0.0016622,"INCLINATION":62.7917,"RA_OF_ASC_NODE":325.2753,"ARG_OF_PERICENTER":190.7601,"MEAN_ANOMALY":169.3146,"EPHEMERIS_TYPE":0,"CLASSIFICATION_TYPE":"U","NORAD_CAT_ID":20663,"ELEMENT_SET_NO":999,"REV_AT_EPOCH":93677,"BSTAR":0.00020683,"MEAN_MOTION_DOT":2.809e-5,"MEAN_MOTION_DDOT":0},{"OBJECT_NAME":"SL-6 R/B(2)","OBJECT_ID":"1990-055D","EPOCH":"2026-03-12T19:55:44.398272","MEAN_MOTION":15.03612237,"ECCENTRICITY":0.0025307,"INCLINATION":62.7824,"RA_OF_ASC_NODE":243.1697,"ARG_OF_PERICENTER":347.7973,"MEAN_ANOMALY":12.251,"EPHEMERIS_TYPE":0,"CLASSIFICATION_TYPE":"U","NORAD_CAT_ID":20666,"ELEMENT_SET_NO":999,"REV_AT_EPOCH":93866,"BSTAR":0.00020089,"MEAN_MOTION_DOT":2.577e-5,"MEAN_MOTION_DDOT":0},{"OBJECT_NAME":"SL-8 R/B","OBJECT_ID":"1990-078B","EPOCH":"2026-03-12T12:46:16.412160","MEAN_MOTION":14.89163958,"ECCENTRICITY":0.0361621,"INCLINATION":82.9003,"RA_OF_ASC_NODE":248.7539,"ARG_OF_PERICENTER":4.4419,"MEAN_ANOMALY":355.9858,"EPHEMERIS_TYPE":0,"CLASSIFICATION_TYPE":"U","NORAD_CAT_ID":20775,"ELEMENT_SET_NO":999,"REV_AT_EPOCH":80972,"BSTAR":0.00046878,"MEAN_MOTION_DOT":0.00015911,"MEAN_MOTION_DDOT":0}]
